[{"OBJECT_NAME":"STARLINK-1526","OBJECT_ID":"2020-055C","EPOCH":"2026-03-10T00:00:02.999808","MEAN_MOTION":15.19094638,"ECCENTRICITY":8.938e-5,"INCLINATION":53.1067,"RA_OF_ASC_NODE":124.7929,"ARG_OF_PERICENTER":56.7447,"MEAN_ANOMALY":353.5398,"EPHEMERIS_TYPE":0,"CLASSIFICATION_TYPE":"U","NORAD_CAT_ID":46029,"ELEMENT_SET_NO":999,"REV_AT_EPOCH":569,"BSTAR":0.0056326704,"MEAN_MOTION_DOT":0.00121352,"MEAN_MOTION_DDOT":0},{"OBJECT_NAME":"SKYBEE-A01","OBJECT_ID":"2025-009BQ","EPOCH":"2026-03-09T22:13:34.187232","MEAN_MOTION":15.20469769,"ECCENTRICITY":0.00044249,"INCLINATION":97.4035,"RA_OF_ASC_NODE":149.2825,"ARG_OF_PERICENTER":337.6504,"MEAN_ANOMALY":22.4538,"EPHEMERIS_TYPE":0,"CLASSIFICATION_TYPE":"U","NORAD_CAT_ID":62671,"ELEMENT_SET_NO":999,"REV_AT_EPOCH":12125,"BSTAR":0.00016670502,"MEAN_MOTION_DOT":3.572e-5,"MEAN_MOTION_DDOT":0}]
